ONEWEB-0474             
1 51654U 22012AJ  23350.70439740  .00000687  00000+0  19310-2 0  9991
2 51654  87.8905 217.7045 0001199  89.4587 270.6678 13.10371290 89669
ONEWEB-0475             
1 51655U 22012AK  23350.93720388 -.00013416  00000+0 -34720-1 0  9995
2 51655  87.9232 187.4477 0001485 107.2551 252.8743 13.17486863 93428
ONEWEB-0490             
1 54113U 22138A   23350.92130352  .00000027  00000+0  35682-4 0  9994
2 54113  87.9189 126.7588 0001551 107.3857 252.7446 13.19724332 56374
ONEWEB-0492             
1 54114U 22138B   23350.94657383 -.00000028  00000+0 -10251-3 0  9992
2 54114  87.9189 126.7490 0001583 116.3753 243.7542 13.19725817 57251
ONEWEB-0495             
1 54115U 22138C   23350.92445855 -.00000040  00000+0 -13275-3 0  9993
2 54115  87.9188 126.7647 0001361 120.7066 239.4201 13.19724785 56363
ONEWEB-0497             
1 54116U 22138D   23350.93710305  .00000072  00000+0  14790-3 0  9996
2 54116  87.9189 126.7566 0001488 105.9415 254.1882 13.19725037 56357
ONEWEB-0499             
1 54117U 22138E   23350.91972762 -.00000091  00000+0 -25943-3 0  9997
2 54117  87.9188 126.7549 0001052  92.1986 267.9268 13.19727224 56366
ONEWEB-0500             
1 54118U 22138F   23350.84706669 -.00000064  00000+0 -19331-3 0  9995
2 54118  87.9191 126.7693 0001624 107.5808 252.5502 13.19725704 56362
